NORAD_CAT_ID,OBJECT_NAME,OBJECT_TYPE,EPOCH,MEAN_MOTION,ECCENTRICITY,INCLINATION,RA_OF_ASC_NODE,ARG_OF_PERICENTER,MEAN_ANOMALY,BSTAR,MEAN_MOTION_DOT,MEAN_MOTION_DDOT,TLE_LINE0,TLE_LINE1,TLE_LINE2,SEMIMAJOR_AXIS,PERIOD,APOGEE,PERIGEE,DECAYED
51747.0,STARLINK-3446,PAYLOAD,2022-04-06 22:00:00,15.71761755,0.000101,53.2176,280.2172,94.0851,284.8773,-0.0059145,-0.0071766999999999,0.0,0 STARLINK-3446,1 51747U 22016AK  22096.91667824 -.00717670  00000-0 -59145-2 0  9993,2 51747  53.2176 280.2172 0001010  94.0851 284.8773 15.71761755  8261,6731.999,91.617,354.5440000000001,353.184,0.0
51747.0,STARLINK-3446,PAYLOAD,2022-04-07 14:00:01,15.70741741,0.0001249,53.2178,276.926,73.7845,118.3443,-0.0061655,-0.0071661999999999,0.0,0 STARLINK-3446,1 51747U 22016AK  22097.58334491 -.00716620  00000-0 -61655-2 0  9991,2 51747  53.2178 276.9260 0001249  73.7845 118.3443 15.70741741  3716,6734.913000000001,91.676,357.619,355.93699999999984,0.0
51747.0,STARLINK-3446,PAYLOAD,2022-04-07 20:00:01,15.70360144,0.0001276,53.2175,275.6953,68.9669,97.4655,-0.0062786,-0.00718016,0.0,0 STARLINK-3446,1 51747U 22016AK  22097.83334491 -.00718016  00000-0 -62786-2 0  9996,2 51747  53.2175 275.6953 0001276  68.9669  97.4655 15.70360144  8416,6736.004,91.699,358.728,357.009,0.0
51747.0,STARLINK-3446,PAYLOAD,2022-04-07 22:00:00,15.70074804,0.0001303,53.217,275.2876,86.1836,191.6889,-0.0043647,-0.00506019,0.0,0 STARLINK-3446,1 51747U 22016AK  22097.91667824 -.00506019  00000-0 -43647-2 0  9997,2 51747  53.2170 275.2876 0001303  86.1836 191.6889 15.70074804  3674,6736.82,91.715,359.56300000000016,357.807,0.0
51747.0,STARLINK-3446,PAYLOAD,2022-04-08 14:00:03,15.6921329,0.0001127,53.2175,272.0014,65.86,21.5509,-0.0065974999999999,-0.00719025,0.0,0 STARLINK-3446,1 51747U 22016AK  22098.58336806 -.00719025  00000-0 -65975-2 0  9995,2 51747  53.2175 272.0014 0001127  65.8600  21.5509 15.69213290  3701,6739.286,91.766,361.91,360.391,0.0
51747.0,STARLINK-3446,PAYLOAD,2022-04-08 22:00:00,15.68697484,0.000122,53.2174,270.36400000000003,67.0358,104.0705,-0.0066396,-0.00709156,0.0,0 STARLINK-3446,1 51747U 22016AK  22098.91667824 -.00709156  00000-0 -66396-2 0  9991,2 51747  53.2174 270.3640 0001220  67.0358 104.0705 15.68697484  8580,6740.763000000001,91.796,363.45,361.805,0.0
51747.0,STARLINK-3446,PAYLOAD,2022-04-09 14:00:01,15.67684224,0.0001136,53.2178,267.088,66.4254,270.4912,-0.0070387,-0.00720037,0.0,0 STARLINK-3446,1 51747U 22016AK  22099.58334491 -.00720037  00000-0 -70387-2 0  9992,2 51747  53.2178 267.0880 0001136  66.4254 270.4912 15.67684224  3701,6743.667,91.855,366.298,364.766,0.0
51747.0,STARLINK-3446,PAYLOAD,2022-04-09 22:00:00,15.67169992,0.0001152,53.2174,265.4541,56.2916,2.6122,-0.0071072,-0.00712547,0.0,0 STARLINK-3446,1 51747U 22016AK  22099.91667824 -.00712547  00000-0 -71072-2 0  9997,2 51747  53.2174 265.4541 0001152  56.2916   2.6122 15.67169992  8739,6745.142,91.885,367.784,366.23,0.0
51747.0,STARLINK-3446,PAYLOAD,2022-04-10 14:00:01,15.66152031,0.0001359,53.2176,262.1857,59.5097,161.5294,-0.0074438,-0.00715771,0.0,0 STARLINK-3446,1 51747U 22016AK  22100.58334491 -.00715771  00000-0 -74438-2 0  9995,2 51747  53.2176 262.1857 0001359  59.5097 161.5294 15.66152031  3702,6748.065,91.945,370.847,369.013,0.0
51747.0,STARLINK-3446,PAYLOAD,2022-04-10 20:00:01,15.65768247,0.0001266,53.2175,260.9633,76.4846,114.7228,-0.007533,-0.0071338,0.0,0 STARLINK-3446,1 51747U 22016AK  22100.83334491 -.00713380  00000-0 -75330-2 0  9999,2 51747  53.2175 260.9633 0001266  76.4846 114.7228 15.65768247  8888,6749.167,91.968,371.887,370.17800000000005,0.0
51747.0,STARLINK-3446,PAYLOAD,2022-04-10 22:00:00,15.65640504,0.0001095999999999,53.2173,260.5555,80.8579,220.3289,-0.0075625,-0.0071253,0.0,0 STARLINK-3446,1 51747U 22016AK  22100.91667824 -.00712530  00000-0 -75625-2 0  9990,2 51747  53.2173 260.5555 0001096  80.8579 220.3289 15.65640504  3700,6749.534000000002,91.975,372.139,370.66,0.0
51747.0,STARLINK-3446,PAYLOAD,2022-04-11 14:00:01,15.64622881,0.0001317,53.2175,257.2948,51.9307,47.7147,-0.00793,-0.00716893,0.0,0 STARLINK-3446,1 51747U 22016AK  22101.58334491 -.00716893  00000-0 -79300-2 0  9995,2 51747  53.2175 257.2948 0001317  51.9307  47.7147 15.64622881  3717,6752.4609999999975,92.035,375.215,373.436,0.0
51747.0,STARLINK-3446,PAYLOAD,2022-04-11 20:00:01,15.64238793,0.0001126,53.2176,256.0749,67.141,1.2941,-0.0080217,-0.00714333,0.0,0 STARLINK-3446,1 51747U 22016AK  22101.83334491 -.00714333  00000-0 -80217-2 0  9999,2 51747  53.2176 256.0749 0001126  67.1410   1.2941 15.64238793  9039,6753.566,92.058,376.191,374.67,0.0
51747.0,STARLINK-3446,PAYLOAD,2022-04-11 22:00:00,15.64109866,0.0001238,53.2173,255.6678,69.3404,108.6152,-0.0080247,-0.00711235,0.0,0 STARLINK-3446,1 51747U 22016AK  22101.91667824 -.00711235  00000-0 -80247-2 0  9998,2 51747  53.2173 255.6678 0001238  69.3404 108.6152 15.64109866  3693,6753.937,92.065,376.638,374.966,0.0
51747.0,STARLINK-3446,PAYLOAD,2022-04-12 14:00:01,15.63093535,0.0001325,53.2176,252.4148,49.7082,283.0284,-0.0084341,-0.0071746,0.0,0 STARLINK-3446,1 51747U 22016AK  22102.58334491 -.00717460  00000-0 -84341-2 0  9998,2 51747  53.2176 252.4148 0001325  49.7082 283.0284 15.63093535  3715,6756.864000000001,92.125,379.625,377.834,0.0
51747.0,STARLINK-3446,PAYLOAD,2022-04-12 20:00:01,15.62708796,0.0001199,53.2175,251.1977,70.3147,229.8331,-0.0085126,-0.00713558,0.0,0 STARLINK-3446,1 51747U 22016AK  22102.83334491 -.00713558  00000-0 -85126-2 0  9992,2 51747  53.2175 251.1977 0001199  70.3147 229.8331 15.62708796  9191,6757.973000000001,92.148,380.649,379.028,0.0
51747.0,STARLINK-3446,PAYLOAD,2022-04-12 22:00:00,15.62582466,0.0001104,53.2171,250.7915,59.8998,349.3079,-0.0085684,-0.00714566,0.0,0 STARLINK-3446,1 51747U 22016AK  22102.91667824 -.00714566  00000-0 -85684-2 0  9999,2 51747  53.2171 250.7915 0001104  59.8998 349.3079 15.62582466  3696,6758.3380000000025,92.155,380.949,379.456,0.0
51747.0,STARLINK-3446,PAYLOAD,2022-04-13 14:00:03,15.61560664,0.0001593,53.2173,247.5458,45.4737,154.9707,-0.0088856,-0.00712268,0.0,0 STARLINK-3446,1 51747U 22016AK  22103.58336806 -.00712268  00000-0 -88856-2 0  9997,2 51747  53.2173 247.5458 0001593  45.4737 154.9707 15.61560664  3703,6761.285,92.215,384.227,382.073,0.0
51747.0,STARLINK-3446,PAYLOAD,2022-04-13 22:00:00,15.61052932,0.0001219,53.2172,245.9261,63.8373,211.1086,-0.0091014,-0.00714976,0.0,0 STARLINK-3446,1 51747U 22016AK  22103.91667824 -.00714976  00000-0 -91014-2 0  9999,2 51747  53.2172 245.9261 0001219  63.8373 211.1086 15.61052932  9369,6762.751,92.245,385.441,383.792,0.0
51747.0,STARLINK-3446,PAYLOAD,2022-04-14 14:00:01,15.60033431,0.0001469,53.2175,242.6884,41.3806,20.9938,-0.0094887,-0.00716505,0.0,0 STARLINK-3446,1 51747U 22016AK  22104.58334491 -.00716505  00000-0 -94887-2 0  9995,2 51747  53.2175 242.6884 0001469  41.3806  20.9938 15.60033431  3702,6765.696999999999,92.306,388.556,386.569,0.0
51747.0,STARLINK-3446,PAYLOAD,2022-04-14 22:00:00,15.59522956,0.0001330999999999,53.2171,241.0718,55.7385,79.4308,-0.0096583,-0.00715231,0.0,0 STARLINK-3446,1 51747U 22016AK  22104.91667824 -.00715231  00000-0 -96583-2 0  9991,2 51747  53.2171 241.0718 0001331  55.7385  79.4308 15.59522956  9525,6767.174,92.336,389.939,388.138,0.0
51747.0,STARLINK-3446,PAYLOAD,2022-04-15 14:00:01,15.58501313,0.0001629,53.2174,237.8417,41.3433,237.5781,-0.0099992,-0.00712453,0.0,0 STARLINK-3446,1 51747U 22016AK  22105.58334491 -.00712453  00000-0 -99992-2 0  9996,2 51747  53.2174 237.8417 0001629  41.3433 237.5781 15.58501313  3701,6770.130999999999,92.396,393.099,390.893,0.0
51747.0,STARLINK-3446,PAYLOAD,2022-04-15 22:00:00,15.57993616,0.0001167,53.2172,236.2289,58.2865,291.5901,-0.010239,-0.00715266,0.0,0 STARLINK-3446,1 51747U 22016AK  22105.91667824 -.00715266  00000-0 -10239-1 0  9993,2 51747  53.2172 236.2289 0001167  58.2865 291.5901 15.57993616  9678,6771.601,92.427,394.257,392.676,0.0
51747.0,STARLINK-3446,PAYLOAD,2022-04-16 14:00:01,15.56971762,0.0001828,53.2172,233.0062,34.4546,95.4979,-0.010604,-0.00713081,0.0,0 STARLINK-3446,1 51747U 22016AK  22106.58334491 -.00713081  00000-0 -10604-1 0  9997,2 51747  53.2172 233.0062 0001828  34.4546  95.4979 15.56971762  3709,6774.564,92.487,397.667,395.191,0.0
51747.0,STARLINK-3446,PAYLOAD,2022-04-16 22:00:01,15.56463717,0.0001402,53.2172,231.3967,55.5144,143.6205,-0.010861,-0.00716206,0.0,0 STARLINK-3446,1 51747U 22016AK  22106.91668981 -.00716206  00000-0 -10861-1 0  9995,2 51747  53.2172 231.3967 0001402  55.5144 143.6205 15.56463717  9834,6776.038000000001,92.517,398.853,396.953,0.0
51747.0,STARLINK-3446,PAYLOAD,2022-04-17 14:00:01,15.554427800000004,0.0001699,53.2175,228.1817,34.2596,301.2085,-0.011245,-0.00714088,0.0,0 STARLINK-3446,1 51747U 22016AK  22107.58334491 -.00714088  00000-0 -11245-1 0  9998,2 51747  53.2175 228.1817 0001699  34.2596 301.2085 15.55442780  3702,6779.003000000002,92.578,402.02,399.716,0.0
51747.0,STARLINK-3446,PAYLOAD,2022-04-17 22:00:00,15.54932998,0.0001321,53.2172,226.5758,45.62600000000001,357.1219,-0.011453,-0.00713649,0.0,0 STARLINK-3446,1 51747U 22016AK  22107.91667824 -.00713649  00000-0 -11453-1 0  9997,2 51747  53.2172 226.5758 0001321  45.6260 357.1219 15.54932998  3692,6780.484,92.608,403.245,401.454,0.0
51747.0,STARLINK-3446,PAYLOAD,2022-04-18 08:00:01,15.54295141,0.0001603,53.2176,224.5689,47.0799,168.9065,-0.011697,-0.00712096,0.0,0 STARLINK-3446,1 51747U 22016AK  22108.33334491 -.00712096  00000-0 -11697-1 0  9990,2 51747  53.2176 224.5689 0001603  47.0799 168.9065 15.54295141 10050,6782.339,92.646,405.292,403.117,0.0
51747.0,STARLINK-3446,PAYLOAD,2022-04-18 14:00:01,15.53911779,0.0002005,53.2174,223.3682,32.2897,143.1799,-0.011866,-0.0071233999999999,0.0,0 STARLINK-3446,1 51747U 22016AK  22108.58334491 -.00712340  00000-0 -11866-1 0  9997,2 51747  53.2174 223.3682 0002005  32.2897 143.1799 15.53911779  3704,6783.455,92.669,406.68,403.96,0.0
